[{"OBJECT_NAME":"STARLINK-35747","OBJECT_ID":"2025-244B","EPOCH":"2026-03-09T18:04:51.790944","MEAN_MOTION":15.30181463,"ECCENTRICITY":8.528e-5,"INCLINATION":53.1587,"RA_OF_ASC_NODE":229.9645,"ARG_OF_PERICENTER":97.5769,"MEAN_ANOMALY":262.5329,"EPHEMERIS_TYPE":0,"CLASSIFICATION_TYPE":"U","NORAD_CAT_ID":66207,"ELEMENT_SET_NO":999,"REV_AT_EPOCH":2166,"BSTAR":0.00072273941,"MEAN_MOTION_DOT":0.00021095,"MEAN_MOTION_DDOT":0},{"OBJECT_NAME":"CZ-2C R\/B","OBJECT_ID":"2014-014B","EPOCH":"2026-03-09T23:01:00.862464","MEAN_MOTION":15.34922702,"ECCENTRICITY":0.00700559,"INCLINATION":98.3314,"RA_OF_ASC_NODE":172.135,"ARG_OF_PERICENTER":276.2597,"MEAN_ANOMALY":83.0667,"EPHEMERIS_TYPE":0,"CLASSIFICATION_TYPE":"U","NORAD_CAT_ID":39625,"ELEMENT_SET_NO":999,"REV_AT_EPOCH":65564,"BSTAR":0.0004934259,"MEAN_MOTION_DOT":0.00018031,"MEAN_MOTION_DDOT":0}]
